{"type": "FeatureCollection", "features": [ {"type": "Feature", "properties": {"norad_id": 43107, "name": "BEIDOU-3 M7 (C27)", "group": "gnss", "lat": -43.312792558591546, "lon": -94.00435169911691, "alt_km": 21537.472942677417, "timestamp": "2025-12-27T23:26:37.605235+00:00", "meta": {"OBJECT_NAME": "BEIDOU-3 M7 (C27)", "OBJECT_ID": "2018-003A", "EPOCH": "2025-12-26T23:43:35.331168", "MEAN_MOTION": 1.86232541, "ECCENTRICITY": 0.00029586, "INCLINATION": 54.484, "RA_OF_ASC_NODE": 308.3202, "ARG_OF_PERICENTER": 66.0283, "MEAN_ANOMALY": 294.0099, "EPHEMERIS_TYPE": 0, "CLASSIFICATION_TYPE": "U", "NORAD_CAT_ID": 43107, "ELEMENT_SET_NO": 999, "REV_AT_EPOCH": 5414, "BSTAR": 0, "MEAN_MOTION_DOT": -5.9e-07, "MEAN_MOTION_DDOT": 0}, "tle": {"line1": "1 43107U 18003A   25360.98860337 -.00000059  00000+0  00000+0 0  9990", "line2": "2 43107  54.4840 308.3202 0002958  66.0283 294.0099  1.86232541 54148"}}, "geometry": {"type": "Point", "coordinates": [-94.00435169911691, -43.312792558591546]}}, {"type": "Feature", "properties": {"norad_id": 43108, "name": "BEIDOU-3 M8 (C28)", "group": "gnss", "lat": -16.630044755461714, "lon": -64.05636598469272, "alt_km": 21523.946744261288, "timestamp": "2025-12-27T23:26:37.605247+00:00", "meta": {"OBJECT_NAME": "BEIDOU-3 M8 (C28)", "OBJECT_ID": "2018-003B", "EPOCH": "2025-12-24T05:58:21.185184", "MEAN_MOTION": 1.86231107, "ECCENTRICITY": 0.00045887, "INCLINATION": 54.4794, "RA_OF_ASC_NODE": 308.398, "ARG_OF_PERICENTER": 279.3969, "MEAN_ANOMALY": 80.5568, "EPHEMERIS_TYPE": 0, "CLASSIFICATION_TYPE": "U", "NORAD_CAT_ID": 43108, "ELEMENT_SET_NO": 999, "REV_AT_EPOCH": 5410, "BSTAR": 0, "MEAN_MOTION_DOT": -5.4e-07, "MEAN_MOTION_DDOT": 0}, "tle": {"line1": "1 43108U 18003B   25358.24885631 -.00000054  00000+0  00000+0 0  9996", "line2": "2 43108  54.4794 308.3980 0004588 279.3969  80.5568  1.86231107 54103"}}, "geometry": {"type": "Point", "coordinates": [-64.05636598469272, -16.630044755461714]}}, {"type": "Feature", "properties": {"norad_id": 43207, "name": "BEIDOU-3 M4 (C22)", "group": "gnss", "lat": 34.74167010311907, "lon": 96.12524533691033, "alt_km": 21515.028958219624, "timestamp": "2025-12-27T23:26:37.605258+00:00", "meta": {"OBJECT_NAME": "BEIDOU-3 M4 (C22)", "OBJECT_ID": "2018-018A", "EPOCH": "2025-12-25T18:21:17.493120", "MEAN_MOTION": 1.86231089, "ECCENTRICITY": 0.00042291, "INCLINATION": 56.4961, "RA_OF_ASC_NODE": 68.874, "ARG_OF_PERICENTER": 1.268, "MEAN_ANOMALY": 358.7861, "EPHEMERIS_TYPE": 0, "CLASSIFICATION_TYPE": "U", "NORAD_CAT_ID": 43207, "ELEMENT_SET_NO": 999, "REV_AT_EPOCH": 5351, "BSTAR": 0, "MEAN_MOTION_DOT": -2.7e-07, "MEAN_MOTION_DDOT": 0}, "tle": {"line1": "1 43207U 18018A   25359.76478580 -.00000027  00000+0  00000+0 0  9991", "line2": "2 43207  56.4961  68.8740 0004229   1.2680 358.7861  1.86231089 53516"}}, "geometry": {"type": "Point", "coordinates": [96.12524533691033, 34.74167010311907]}}, {"type": "Feature", "properties": {"norad_id": 43208, "name": "BEIDOU-3 M3 (C21)", "group": "gnss", "lat": -1.2702694538140111, "lon": 67.97903346950403, "alt_km": 21514.29632244544, "timestamp": "2025-12-27T23:26:37.605271+00:00", "meta": {"OBJECT_NAME": "BEIDOU-3 M3 (C21)", "OBJECT_ID": "2018-018B", "EPOCH": "2025-12-26T08:50:15.779616", "MEAN_MOTION": 1.86231383, "ECCENTRICITY": 0.0007147, "INCLINATION": 56.4961, "RA_OF_ASC_NODE": 68.858, "ARG_OF_PERICENTER": 313.9083, "MEAN_ANOMALY": 46.0843, "EPHEMERIS_TYPE": 0, "CLASSIFICATION_TYPE": "U", "NORAD_CAT_ID": 43208, "ELEMENT_SET_NO": 999, "REV_AT_EPOCH": 5352, "BSTAR": 0, "MEAN_MOTION_DOT": -3e-07, "MEAN_MOTION_DDOT": 0}, "tle": {"line1": "1 43208U 18018B   25360.36823819 -.00000030  00000+0  00000+0 0  9993", "line2": "2 43208  56.4961  68.8580 0007147 313.9083  46.0843  1.86231383 53526"}}, "geometry": {"type": "Point", "coordinates": [67.97903346950403, -1.2702694538140111]}}, {"type": "Feature", "properties": {"norad_id": 43245, "name": "BEIDOU-3 M9 (C29)", "group": "gnss", "lat": -26.610469313053787, "lon": 146.97072724873806, "alt_km": 21530.915888113675, "timestamp": "2025-12-27T23:26:37.605285+00:00", "meta": {"OBJECT_NAME": "BEIDOU-3 M9 (C29)", "OBJECT_ID": "2018-029A", "EPOCH": "2025-12-26T14:01:45.970176", "MEAN_MOTION": 1.86228127, "ECCENTRICITY": 0.00015403, "INCLINATION": 54.3532, "RA_OF_ASC_NODE": 305.9861, "ARG_OF_PERICENTER": 291.5798, "MEAN_ANOMALY": 68.4134, "EPHEMERIS_TYPE": 0, "CLASSIFICATION_TYPE": "U", "NORAD_CAT_ID": 43245, "ELEMENT_SET_NO": 999, "REV_AT_EPOCH": 5268, "BSTAR": 0, "MEAN_MOTION_DOT": -5.7e-07, "MEAN_MOTION_DDOT": 0}, "tle": {"line1": "1 43245U 18029A   25360.58455984 -.00000057  00000+0  00000+0 0  9993", "line2": "2 43245  54.3532 305.9861 0001540 291.5798  68.4134  1.86228127 52689"}}, "geometry": {"type": "Point", "coordinates": [146.97072724873806, -26.610469313053787]}}, {"type": "Feature", "properties": {"norad_id": 43246, "name": "BEIDOU-3 M10 (C30)", "group": "gnss", "lat": -52.322106524238094, "lon": -165.860931974694, "alt_km": 21537.38345628694, "timestamp": "2025-12-27T23:26:37.605297+00:00", "meta": {"OBJECT_NAME": "BEIDOU-3 M10 (C30)", "OBJECT_ID": "2018-029B", "EPOCH": "2025-12-27T01:21:39.455424", "MEAN_MOTION": 1.86229161, "ECCENTRICITY": 0.0004375, "INCLINATION": 54.3501, "RA_OF_ASC_NODE": 305.9964, "ARG_OF_PERICENTER": 3.4354, "MEAN_ANOMALY": 356.5764, "EPHEMERIS_TYPE": 0, "CLASSIFICATION_TYPE": "U", "NORAD_CAT_ID": 43246, "ELEMENT_SET_NO": 999, "REV_AT_EPOCH": 5267, "BSTAR": 0, "MEAN_MOTION_DOT": -5.9e-07, "MEAN_MOTION_DDOT": 0}, "tle": {"line1": "1 43246U 18029B   25361.05670666 -.00000059  00000+0  00000+0 0  9995", "line2": "2 43246  54.3501 305.9964 0004375   3.4354 356.5764  1.86229161 52675"}}, "geometry": {"type": "Point", "coordinates": [-165.860931974694, -52.322106524238094]}}, {"type": "Feature", "properties": {"norad_id": 43286, "name": "IRNSS-1I", "group": "gnss", "lat": 26.543713021669443, "lon": 140.19108650507368, "alt_km": 35823.147559174846, "timestamp": "2025-12-27T23:26:37.605309+00:00", "meta": {"OBJECT_NAME": "IRNSS-1I", "OBJECT_ID": "2018-035A", "EPOCH": "2025-12-24T19:28:38.810784", "MEAN_MOTION": 1.00274895, "ECCENTRICITY": 0.00219107, "INCLINATION": 29.1759, "RA_OF_ASC_NODE": 76.9122, "ARG_OF_PERICENTER": 182.7933, "MEAN_ANOMALY": 181.0586, "EPHEMERIS_TYPE": 0, "CLASSIFICATION_TYPE": "U", "NORAD_CAT_ID": 43286, "ELEMENT_SET_NO": 999, "REV_AT_EPOCH": 2833, "BSTAR": 0, "MEAN_MOTION_DOT": 9.2e-07, "MEAN_MOTION_DDOT": 0}, "tle": {"line1": "1 43286U 18035A   25358.81156031  .00000092  00000+0  00000+0 0  9997", "line2": "2 43286  29.1759  76.9122 0021910 182.7933 181.0586  1.00274895 28332"}}, "geometry": {"type": "Point", "coordinates": [140.19108650507368, 26.543713021669443]}}, {"type": "Feature", "properties": {"norad_id": 43508, "name": "COSMOS 2527 (756)", "group": "gnss", "lat": 42.386411958333525, "lon": -124.94866050721505, "alt_km": 19127.69887517296, "timestamp": "2025-12-27T23:26:37.605321+00:00", "meta": {"OBJECT_NAME": "COSMOS 2527 (756)", "OBJECT_ID": "2018-053A", "EPOCH": "2025-12-25T22:15:18.516960", "MEAN_MOTION": 2.13102285, "ECCENTRICITY": 0.00091278, "INCLINATION": 65.4787, "RA_OF_ASC_NODE": 79.6912, "ARG_OF_PERICENTER": 228.9036, "MEAN_ANOMALY": 131.0649, "EPHEMERIS_TYPE": 0, "CLASSIFICATION_TYPE": "U", "NORAD_CAT_ID": 43508, "ELEMENT_SET_NO": 999, "REV_AT_EPOCH": 5858, "BSTAR": 0, "MEAN_MOTION_DOT": -3e-08, "MEAN_MOTION_DDOT": 0}, "tle": {"line1": "1 43508U 18053A   25359.92729765 -.00000003  00000+0  00000+0 0  9990", "line2": "2 43508  65.4787  79.6912 0009127 228.9036 131.0649  2.13102285 58586"}}, "geometry": {"type": "Point", "coordinates": [-124.94866050721505, 42.386411958333525]}}, {"type": "Feature", "properties": {"norad_id": 43539, "name": "BEIDOU-2 IGSO-7 (C16)", "group": "gnss", "lat": 27.409558399044766, "lon": -174.29835409828556, "alt_km": 36154.19792682455, "timestamp": "2025-12-27T23:26:37.605332+00:00", "meta": {"OBJECT_NAME": "BEIDOU-2 IGSO-7 (C16)", "OBJECT_ID": "2018-057A", "EPOCH": "2025-12-23T21:03:51.666912", "MEAN_MOTION": 1.00254881, "ECCENTRICITY": 0.00930582, "INCLINATION": 55.1784, "RA_OF_ASC_NODE": 164.5741, "ARG_OF_PERICENTER": 235.1099, "MEAN_ANOMALY": 119.1175, "EPHEMERIS_TYPE": 0, "CLASSIFICATION_TYPE": "U", "NORAD_CAT_ID": 43539, "ELEMENT_SET_NO": 999, "REV_AT_EPOCH": 2736, "BSTAR": 0, "MEAN_MOTION_DOT": -6.1e-07, "MEAN_MOTION_DDOT": 0}, "tle": {"line1": "1 43539U 18057A   25357.87768133 -.00000061  00000+0  00000+0 0  9996", "line2": "2 43539  55.1784 164.5741 0093058 235.1099 119.1175  1.00254881 27360"}}, "geometry": {"type": "Point", "coordinates": [-174.29835409828556, 27.409558399044766]}}, {"type": "Feature", "properties": {"norad_id": 43564, "name": "GSAT0221 (GALILEO 25)", "group": "gnss", "lat": 47.0077105013697, "lon": 122.68646792942546, "alt_km": 23235.890529821976, "timestamp": "2025-12-27T23:26:37.605344+00:00", "meta": {"OBJECT_NAME": "GSAT0221 (GALILEO 25)", "OBJECT_ID": "2018-060A", "EPOCH": "2025-12-24T06:17:56.044608", "MEAN_MOTION": 1.70475708, "ECCENTRICITY": 0.00067277, "INCLINATION": 57.2252, "RA_OF_ASC_NODE": 346.5066, "ARG_OF_PERICENTER": 286.73, "MEAN_ANOMALY": 73.2039, "EPHEMERIS_TYPE": 0, "CLASSIFICATION_TYPE": "U", "NORAD_CAT_ID": 43564, "ELEMENT_SET_NO": 999, "REV_AT_EPOCH": 4618, "BSTAR": 0, "MEAN_MOTION_DOT": -6.1e-07, "MEAN_MOTION_DDOT": 0}, "tle": {"line1": "1 43564U 18060A   25358.26245422 -.00000061  00000+0  00000+0 0  9993", "line2": "2 43564  57.2252 346.5066 0006727 286.7300  73.2039  1.70475708 46187"}}, "geometry": {"type": "Point", "coordinates": [122.68646792942546, 47.0077105013697]}}]}